GAOFEN 4                
1 41194U 15083A   19076.90743751 -.00000356  00000-0  00000-0 0  9990
2 41194   0.0367 225.7482 0001849 346.7313  35.0941  1.00273235 11935
BELINTERSAT-1           
1 41238U 16001A   19077.50603303  .00000084  00000-0  00000+0 0  9991
2 41238   0.0513 262.2045 0001083 148.8813 358.3063  1.00272536 11719
IRNSS-1E                
1 41241U 16003A   19077.49771503 -.00000291  00000-0  00000+0 0  9994
2 41241  29.1008 103.7925 0020397 185.9336 177.0274  1.00270898 11653
INTELSAT 29E (IS-29E)   
1 41308U 16004A   19077.23024851 -.00000304  00000-0  00000+0 0  9993
2 41308   0.0291 235.7449 0001836 124.1914 208.4389  1.00269314 11602
EUTELSAT 9B             
1 41310U 16005A   19076.94324387  .00000040  00000-0  00000-0 0  9998
2 41310   0.0749  81.4580 0005531 236.0861 206.2065  1.00270952 11567
SES-9                   
1 41380U 16013A   19077.49771503 -.00000368  00000-0  00000+0 0  9994
2 41380   0.0387 265.0554 0001741 132.9230  65.2486  1.00271295 11208
EUTELSAT 65 WEST A      
1 41382U 16014A   19077.41507990 -.00000299  00000-0  00000+0 0  9999
2 41382   0.0527   9.2700 0001965 346.8349 263.7838  1.00269654 11091
IRNSS-1F                
1 41384U 16015A   19077.50219466  .00000132  00000-0  00000+0 0  9995
2 41384   2.8856 244.3249 0020573 175.5583 329.1248  1.00267964 11130
BEIDOU IGSO-6           
1 41434U 16021A   19076.85651870 -.00000114  00000-0  00000-0 0  9996
2 41434  56.4069  65.4275 0033960 202.3739 312.0854  1.00268382 10930
IRNSS-1G                
1 41469U 16027A   19077.44985315 -.00000361  00000-0  00000+0 0  9993
2 41469   2.9377 246.4573 0004937 171.1655  49.5886  1.00270361 10634
JCSAT 2B                
1 41471U 16028A   19076.84517097 -.00000187  00000-0  00000-0 0  9995
2 41471   0.0047 153.6843 0002203 196.5931 283.0877  1.00270889 10552
THAICOM 8               
1 41552U 16031A   19076.86533635 -.00000143  00000-0  00000-0 0  9999
2 41552   0.0715  51.8664 0003983 316.4751 196.8263  1.00272161 10165
INTELSAT 31 (IS-31)     
1 41581U 16035A   19077.40501394 -.00000175  00000-0  00000+0 0  9997
2 41581   0.0227 232.3334 0002461 356.0558 358.0243  1.00281846 10148
BD-2-G7                 
1 41586U 16037A   19077.23448814 -.00000375  00000-0  00000+0 0  9994
2 41586   0.7916  29.6984 0009604   7.8055 332.9533  1.00269558 10231
ABS-2A (MONGOLSAT-1)    
1 41588U 16038A   19077.43886145 -.00000106  00000-0  00000+0 0  9994
2 41588   0.0129 171.4102 0002603 114.2265 122.7572  1.00271123 10158
EUTELSAT 117 WEST B     
1 41589U 16038B   19077.23905811 -.00000034  00000-0  00000+0 0  9995
2 41589   0.0438   3.3496 0000243 134.1028   7.1017  1.00272056 10153
BRISAT                  
1 41591U 16039A   19076.79945115 -.00000217  00000-0  00000+0 0  9993
2 41591   0.0217 174.0934 0002424 173.7735 265.5054  1.00270121 10085
ECHOSTAR 18             
1 41592U 16039B   19076.76561174 -.00000303  00000-0  00000+0 0  9996
2 41592   0.0192 147.8444 0001853 203.2986  38.1492  1.00270888 10073
MUOS-5                  
1 41622U 16041A   19077.07474100 -.00000163  00000-0  00000+0 0  9994
2 41622   8.1811 311.9436 0199666 206.4144 298.8919  1.00270961 10510
TIANTONG-1 1            
1 41725U 16048A   19077.08529453 -.00000338  00000-0  00000+0 0  9992
2 41725   3.6523 328.1635 0006990  38.0552 301.2359  1.00272097  9713
JCSAT-16                
1 41729U 16050A   19076.87676426 -.00000327  00000-0  00000-0 0  9997
2 41729   0.0159 116.1609 0001841 216.4885 294.1399  1.00271769  9506
INTELSAT 36 (IS-36)     
1 41747U 16053A   19077.15045971 -.00000046  00000-0  00000+0 0  9994
2 41747   0.0176 153.7712 0000939 210.9520 293.3722  1.00269697  9406
INTELSAT 33E (IS-33E)   
1 41748U 16053B   19077.14880223  .00000028  00000-0  00000+0 0  9990
2 41748   0.0163  84.4888 0002104 273.5977 290.8824  1.00270692  9664
INSAT-3DR               
1 41752U 16054A   19077.51056931 -.00000099  00000-0  00000+0 0  9997
2 41752   0.0741  97.3097 0012594 185.2232 150.9913  1.00271989  9253
GSAT-18                 
1 41793U 16060A   19076.86501869 -.00000098  00000-0  00000-0 0  9991
2 41793   0.0317 107.9478 0000756 238.9537 213.6114  1.00271767  8982
SKY MUSTER 2            
1 41794U 16060B   19076.91071884 -.00000266  00000-0  00000-0 0  9994
2 41794   0.0108 228.0813 0001646 119.1449 300.6040  1.00271661  8966
HIMAWARI-9              
1 41836U 16064A   19076.84758873 -.00000296  00000-0  00000+0 0  9999
2 41836   0.0254 154.6210 0001212 200.6140 265.7956  1.00267839  8748
SHIJIAN-17 (SJ-17)      
1 41838U 16065A   19076.99596625 -.00000285  00000-0  00000-0 0  9992
2 41838   0.5541  97.4731 0002427 294.6267 235.9167  1.00273486  8678
GOES 16                 
1 41866U 16071A   19077.51575400 -.00000271  00000-0  00000+0 0  9991
2 41866   0.0433 337.6948 0000667  51.0578 257.4785  1.00270642  8561
TIANLIAN 1-04           
1 41869U 16072A   19076.97545279 -.00000129  00000-0  00000-0 0  9998
2 41869   1.2808 284.7010 0012727 148.0435 170.6714  1.00271490  8755
WGS F8 (USA 272)        
1 41879U 16075A   19076.84533834 -.00000224  00000-0  00000-0 0  9998
2 41879   0.0096  90.6710 0000294 321.1366 217.3992  1.00269019  8285
FENGYUN 4A              
1 41882U 16077A   19076.90786150 -.00000349  00000-0  00000-0 0  9990
2 41882   0.1453  90.6025 0003813  23.4717 132.3805  1.00263327  8429
ECHOSTAR 19             
1 41893U 16079A   19077.08250069 -.00000160  00000-0  00000+0 0  9999
2 41893   0.0181 165.7420 0001655 183.8353 118.3548  1.00270098  8184
JCSAT-15                
1 41903U 16082A   19077.49771503 -.00000373  00000-0  00000+0 0  9997
2 41903   0.0094 220.1327 0001718 136.1910 108.6624  1.00269862  8231
STAR ONE D1             
1 41904U 16082B   19077.47898993 -.00000234  00000-0  00000+0 0  9995
2 41904   0.0023 186.1287 0001989 171.7514 266.2847  1.00272975  8232
TJS-2                   
1 41911U 17001A   19077.67663778 -.00000365  00000-0  00000+0 0  9993
2 41911   0.1207 286.1669 0006135  40.8937 199.9995  1.00270194  8184
SBIRS GEO-3 (USA 273)   
1 41937U 17004A   19077.19852023  .00000105  00000-0  00000+0 0  9995
2 41937   4.6915 312.5830 0002246  42.4762  92.4469  1.00272338  8044
HISPASAT 36W-1          
1 41942U 17006A   19077.12961032 -.00000266  00000-0  00000+0 0  9996
2 41942   0.0173 352.5627 0000982 359.1023 194.3735  1.00271282  7973
TELKOM 3S               
1 41944U 17007A   19077.53799285 -.00000385  00000-0  00000+0 0  9995
2 41944   0.0157 145.6503 0002476 218.0227 123.7950  1.00271455  7663
INTELSAT 32E (IS-32E)   
1 41945U 17007B   19077.51160581 -.00000292  00000-0  00000+0 0  9992
2 41945   0.0273 164.4840 0000344 148.6912   3.6122  1.00268178  7695
ECHOSTAR 23             
1 42070U 17014A   19076.84073584 -.00000294  00000-0  00000-0 0  9994
2 42070   0.0271 159.2495 0002019 207.6399  65.9924  1.00269484  7374
WGS F9 (USA 275)        
1 42075U 17016A   19077.57887497  .00000050  00000-0  00000+0 0  9996
2 42075   0.0063 174.6194 0000520 125.7490 140.6619  1.00271719  7389
SES-10                  
1 42432U 17017A   19077.47082476 -.00000295  00000-0  00000+0 0  9999
2 42432   0.0227 148.9717 0003097 215.6233 273.7485  1.00269131  7204
CHINASAT 16 (SJ-13)     
1 42662U 17018A   19076.98033155 -.00000373  00000-0  00000+0 0  9997
2 42662   0.0431  96.2579 0005061 169.4404  12.9307  1.00273650  7180
KOREASAT 7              
1 42691U 17023A   19076.93874431 -.00000383  00000-0  00000-0 0  9992
2 42691   0.0193 106.2963 0001444 235.9772 286.7615  1.00272874  6824
SGDC                    
1 42692U 17023B   19076.72180189 -.00000270  00000-0  00000-0 0  9995
2 42692   0.0219  89.1486 0002385 265.8244   5.0056  1.00272025  6867
GSAT-9                  
1 42695U 17024A   19076.86908750 -.00000308  00000-0  00000-0 0  9998
2 42695   0.0441 263.8125 0002809  99.1651 222.3593  1.00272027  6771
INMARSAT 5-F4           
1 42698U 17025A   19077.78173024  .00000052  00000-0  00000+0 0  9996
2 42698   0.0049 177.1758 0000399  74.2625 262.5075  1.00272974  6710
SES-15                  
1 42709U 17026A   19077.11102910  .00000038  00000-0  00000+0 0  9997
2 42709   0.0256 155.5801 0001130 204.7105  85.9021  1.00270303  7633
QZS-2  (MICHIBIKI-2)    
1 42738U 17028A   19076.87929411 -.00000151  00000-0  00000+0 0  9993
2 42738  43.7514 280.7804 0742625 270.7054  80.0082  1.00263949  6581
VIASAT-2                
1 42740U 17029A   19077.51443455 -.00000288  00000-0  00000+0 0  9999
2 42740   0.0188 164.7344 0000275 141.3679 344.9445  1.00270681  6644
EUTELSAT 172B           
1 42741U 17029B   19076.62897194 -.00000026  00000-0  00000-0 0  9995
2 42741   0.0122 146.9553 0000983 134.5476 291.8114  1.00272278  7167
GSAT-19                 
1 42747U 17031A   19077.47966140  .00000103  00000-0  00000+0 0  9990
2 42747   0.0201 137.0265 0005162 245.4451  13.8068  1.00270973  6586
ECHOSTAR 21             
1 42749U 17032A   19077.39007528  .00000040  00000-0  00000+0 0  9990
2 42749   6.3862 315.3575 0002245  55.9471 315.0114  1.00273366  6577
CHINASAT 9A (ZX 9A)     
1 42763U 17035A   19077.27253208 -.00000334  00000-0  00000+0 0  9991
2 42763   0.0389 134.5550 0003789 284.6566 315.7926  1.00268083  7100
BULGARIASAT-1           
1 42801U 17038A   19076.85007008 -.00000010  00000-0  00000-0 0  9997
2 42801   0.0106  95.3378 0002570 278.8304 108.8593  1.00272895  6289
HELLAS-SAT 3            
1 42814U 17040A   19077.38452076  .00000130  00000-0  00000+0 0  9993
2 42814   0.0913  57.0132 0005198 305.3324 350.6984  1.00270590  6347
GSAT-17                 
1 42815U 17040B   19077.08372427 -.00000279  00000-0  00000+0 0  9997
2 42815   0.0094 161.1575 0005195 136.8876   0.9293  1.00271829  6313
INTELSAT 35E (IS-35E)   
1 42818U 17041A   19076.84282951 -.00000259  00000-0  00000-0 0  9995
2 42818   0.0221 161.1631 0002021 197.0745  85.7727  1.00271106  6311
